STARLINK-30256          
1 57522U 23115B   26068.20523495 -.00005369  00000+0 -19069-3 0  9997
2 57522  43.0014   4.6316 0001742 264.2228  95.8424 15.26726159142277
FLOCK 4G-27             
1 62641U 25009AJ  26068.75406453  .00012587  00000+0  47455-3 0  9991
2 62641  97.3976 150.8631 0000756 322.4974  37.6212 15.27199247 63710
